
# Worst residual: 13.42 km
# MJD 60235.000000 (2023 Oct 18  0:00)
1973-078A = IMP-8 = NORAD 06893
1 06893U 73078A   23291.49919926  .00000000  00000-0  00000-0 0 21665
2 06893 018.6553 275.2942 2225079 210.1162 359.4506 00.08206783    03

# Worst residual: 5.26 km
# MJD 60236.000000 (2023 Oct 19  0:00)
1973-078A = IMP-8 = NORAD 06893
1 06893U 73078A   23292.49919926  .00000000  00000-0  00000-0 0 21666
2 06893 018.6341 275.2772 2206208 210.2843 028.9362 00.08232134    06

# Worst residual: 4.42 km
# MJD 60237.000000 (2023 Oct 20  0:00)
1973-078A = IMP-8 = NORAD 06893
1 06893U 73078A   23293.49919926  .00000000  00000-0  00000-0 0 21667
2 06893 018.5972 275.2740 2207828 210.4499 058.3641 00.08223825    02

# Worst residual: 8.37 km
# MJD 60238.000000 (2023 Oct 21  0:00)
1973-078A = IMP-8 = NORAD 06893
1 06893U 73078A   23294.49919926  .00000000  00000-0  00000-0 0 21668
2 06893 018.5418 275.2866 2207328 210.8400 087.4876 00.08202928    01

# Worst residual: 11.50 km
# MJD 60239.000000 (2023 Oct 22  0:00)
1973-078A = IMP-8 = NORAD 06893
1 06893U 73078A   23295.49919926  .00000000  00000-0  00000-0 0 21669
2 06893 018.4522 275.2995 2191255 211.2140 116.6260 00.08180992    04

# Worst residual: 16.66 km
# MJD 60240.000000 (2023 Oct 23  0:00)
1973-078A = IMP-8 = NORAD 06893
1 06893U 73078A   23296.49919926  .00000000  00000-0  00000-0 0 21660
2 06893 018.3260 275.2450 2158496 211.4024 146.0441 00.08154444    02

# Worst residual: 24.10 km
# MJD 60241.000000 (2023 Oct 24  0:00)
1973-078A = IMP-8 = NORAD 06893
1 06893U 73078A   23297.49919926  .00000000  00000-0  00000-0 0 21661
2 06893 018.1677 275.0539 2110656 211.3510 175.7841 00.08112925    04

# Worst residual: 31.23 km
# MJD 60242.000000 (2023 Oct 25  0:00)
1973-078A = IMP-8 = NORAD 06893
1 06893U 73078A   23298.49919926  .00000000  00000-0  00000-0 0 21662
2 06893 017.9764 274.6062 2042271 211.0192 205.8073 00.08040832    03

# Worst residual: 40.58 km
# MJD 60243.000000 (2023 Oct 26  0:00)
1973-078A = IMP-8 = NORAD 06893
1 06893U 73078A   23299.49919926  .00000000  00000-0  00000-0 0 21663
2 06893 017.7770 273.6914 1947800 210.2416 236.1228 00.07925923    05

# Worst residual: 64.57 km
# MJD 60244.000000 (2023 Oct 27  0:00)
1973-078A = IMP-8 = NORAD 06893
1 06893U 73078A   23300.49919926  .00000000  00000-0  00000-0 0 21666
2 06893 017.6731 272.2688 1829093 209.1347 266.1039 00.07793798    03

# Worst residual: 73.89 km
# MJD 60245.000000 (2023 Oct 28  0:00)
1973-078A = IMP-8 = NORAD 06893
1 06893U 73078A   23301.49919926  .00000000  00000-0  00000-0 0 21667
2 06893 017.7193 271.2577 1711423 210.4682 292.5149 00.07825277    09

# Worst residual: 37.41 km
# MJD 60246.000000 (2023 Oct 29  0:00)
1973-078A = IMP-8 = NORAD 06893
1 06893U 73078A   23302.49919926  .00000000  00000-0  00000-0 0 21668
2 06893 017.7096 271.0856 1613801 214.0823 317.0867 00.07999295    09

# Worst residual: 20.18 km
# MJD 60247.000000 (2023 Oct 30  0:00)
1973-078A = IMP-8 = NORAD 06893
1 06893U 73078A   23303.49919926  .00000000  00000-0  00000-0 0 21669
2 06893 017.6785 271.0071 1556177 216.5598 343.8948 00.08110881    04

# Worst residual: 14.68 km
# MJD 60248.000000 (2023 Oct 31  0:00)
1973-078A = IMP-8 = NORAD 06893
1 06893U 73078A   23304.49919926  .00000000  00000-0  00000-0 0 21660
2 06893 017.6656 270.9791 1541359 217.8329 012.1924 00.08133387    06

# Worst residual: 11.99 km
# MJD 60249.000000 (2023 Nov  1  0:00)
1973-078A = IMP-8 = NORAD 06893
1 06893U 73078A   23305.49919926  .00000000  00000-0  00000-0 0 21661
2 06893 017.6430 271.0109 1553622 218.8524 040.5177 00.08101157    00

# Worst residual: 8.56 km
# MJD 60250.000000 (2023 Nov  2  0:00)
1973-078A = IMP-8 = NORAD 06893
1 06893U 73078A   23306.49919926  .00000000  00000-0  00000-0 0 21662
2 06893 017.6030 271.0193 1566408 219.8546 068.5695 00.08060644    00

# Worst residual: 4.03 km
# MJD 60251.000000 (2023 Nov  3  0:00)
1973-078A = IMP-8 = NORAD 06893
1 06893U 73078A   23307.49919926  .00000000  00000-0  00000-0 0 21663
2 06893 017.5626 270.9707 1570095 220.4968 096.8432 00.08038650    07

# Worst residual: 1.60 km
# MJD 60252.000000 (2023 Nov  4  0:00)
1973-078A = IMP-8 = NORAD 06893
1 06893U 73078A   23308.49919926  .00000000  00000-0  00000-0 0 21664
2 06893 017.5325 270.8963 1569983 220.6536 125.6128 00.08035619    08

# Worst residual: 5.04 km
# MJD 60253.000000 (2023 Nov  5  0:00)
1973-078A = IMP-8 = NORAD 06893
1 06893U 73078A   23309.49919926  .00000000  00000-0  00000-0 0 21665
2 06893 017.5134 270.8315 1568407 220.5261 154.7368 00.08038311    02

# Worst residual: 6.71 km
# MJD 60254.000000 (2023 Nov  6  0:00)
1973-078A = IMP-8 = NORAD 06893
1 06893U 73078A   23310.49919926  .00000000  00000-0  00000-0 0 21667
2 06893 017.4988 270.7978 1562734 220.2540 184.0300 00.08034870    04

# Worst residual: 6.43 km
# MJD 60255.000000 (2023 Nov  7  0:00)
1973-078A = IMP-8 = NORAD 06893
1 06893U 73078A   23311.49919926  .00000000  00000-0  00000-0 0 21668
2 06893 017.4805 270.7942 1553041 219.8509 213.3876 00.08022198    07

# Worst residual: 4.20 km
# MJD 60256.000000 (2023 Nov  8  0:00)
1973-078A = IMP-8 = NORAD 06893
1 06893U 73078A   23312.49919926  .00000000  00000-0  00000-0 0 21669
2 06893 017.4524 270.7964 1543936 219.4079 242.6658 00.08006121    00

# Worst residual: 1.54 km
# MJD 60257.000000 (2023 Nov  9  0:00)
1973-078A = IMP-8 = NORAD 06893
1 06893U 73078A   23313.49919926  .00000000  00000-0  00000-0 0 21660
2 06893 017.4167 270.7680 1540299 219.2752 271.5635 00.08000429    04

# Worst residual: 7.61 km
# MJD 60258.000000 (2023 Nov 10  0:00)
1973-078A = IMP-8 = NORAD 06893
1 06893U 73078A   23314.49919926  .00000000  00000-0  00000-0 0 21661
2 06893 017.3848 270.6916 1537976 219.8976 299.7913 00.08019730    08

# Worst residual: 13.58 km
# MJD 60259.000000 (2023 Nov 11  0:00)
1973-078A = IMP-8 = NORAD 06893
1 06893U 73078A   23315.49919926  .00000000  00000-0  00000-0 0 21662
2 06893 017.3676 270.5983 1525638 221.2285 327.5660 00.08063797    03

# Worst residual: 18.75 km
# MJD 60260.000000 (2023 Nov 12  0:00)
1973-078A = IMP-8 = NORAD 06893
1 06893U 73078A   23316.49919926  .00000000  00000-0  00000-0 0 21663
2 06893 017.3568 270.5406 1506471 222.6470 355.5465 00.08104603    04

# Worst residual: 18.23 km
# MJD 60261.000000 (2023 Nov 13  0:00)
1973-078A = IMP-8 = NORAD 06893
1 06893U 73078A   23317.49919926  .00000000  00000-0  00000-0 0 21664
2 06893 017.3350 270.5129 1502480 223.9775 023.7379 00.08102425    01

# Worst residual: 19.86 km
# MJD 60262.000000 (2023 Nov 14  0:00)
1973-078A = IMP-8 = NORAD 06893
1 06893U 73078A   23318.49919926  .00000000  00000-0  00000-0 0 21665
2 06893 017.2990 270.5369 1523046 225.7692 051.1863 00.08041314    07

# Worst residual: 22.90 km
# MJD 60263.000000 (2023 Nov 15  0:00)
1973-078A = IMP-8 = NORAD 06893
1 06893U 73078A   23319.49919926  .00000000  00000-0  00000-0 0 21666
2 06893 017.1951 270.7711 1550445 227.8237 077.5935 00.07953548    09
